start=new Date('2022-04-06T00:00:00.000Z').valueOf();
sats=[{"TLE_LINE1":"1 46758U 20074V   22095.90220836  .00002933  00000-0  21572-3 0  9998","TLE_LINE2":"2 46758  53.0530 283.1416 0002233  39.9472 320.1681 15.06396670 80504","MEAN_MOTION_DDOT":"0.0000000000000","INCLINATION":"53.0530","RA_OF_ASC_NODE":"283.1416","EPOCH":"2022-04-05T21:39:10.802304","LAUNCH_DATE":"2020-10-24","PERIAPSIS":"545.677","NORAD_CAT_ID":"46758","OBJECT_TYPE":"PAYLOAD","FILE":"3389912","MEAN_ELEMENT_THEORY":"SGP4","COUNTRY_CODE":"US","APOAPSIS":"548.770","MEAN_MOTION":"15.06396670","GP_ID":"200542894","REF_FRAME":"TEME","PERIOD":"95.592","MEAN_ANOMALY":"320.1681","ARG_OF_PERICENTER":"39.9472","ECCENTRICITY":"0.00022330","OBJECT_ID":"2020-074V","SEMIMAJOR_AXIS":"6925.359","SITE":"AFETR","OBJECT_NAME":"STARLINK-1928","DECAY_DATE":null,"MEAN_MOTION_DOT":"0.00002933","RCS_SIZE":"LARGE","TIME_SYSTEM":"UTC","CLASSIFICATION_TYPE":"U","EPHEMERIS_TYPE":"0","REV_AT_EPOCH":"8050","BSTAR":"0.00021572000000","CENTER_NAME":"EARTH","ELEMENT_SET_NO":"999"},{"EPOCH":"2022-04-05T19:57:00.654912","RA_OF_ASC_NODE":"293.4563","INCLINATION":"53.0551","TLE_LINE2":"2 46759  53.0551 293.4563 0001468  65.7869 294.3273 15.06409400 80348","TLE_LINE1":"1 46759U 20074W   22095.83125758  .00005579  00000-0  39305-3 0  9990","MEAN_MOTION_DDOT":"0.0000000000000","APOAPSIS":"548.201","COUNTRY_CODE":"US","FILE":"3389912","MEAN_ELEMENT_THEORY":"SGP4","OBJECT_TYPE":"PAYLOAD","NORAD_CAT_ID":"46759","LAUNCH_DATE":"2020-10-24","PERIAPSIS":"546.168","DECAY_DATE":null,"OBJECT_NAME":"STARLINK-1833","SEMIMAJOR_AXIS":"6925.320","SITE":"AFETR","OBJECT_ID":"2020-074W","ECCENTRICITY":"0.00014680","PERIOD":"95.592","MEAN_ANOMALY":"294.3273","ARG_OF_PERICENTER":"65.7869","REF_FRAME":"TEME","GP_ID":"200544145","MEAN_MOTION":"15.06409400","ELEMENT_SET_NO":"999","CENTER_NAME":"EARTH","BSTAR":"0.00039305000000","EPHEMERIS_TYPE":"0","REV_AT_EPOCH":"8034","CLASSIFICATION_TYPE":"U","TIME_SYSTEM":"UTC","RCS_SIZE":"LARGE","MEAN_MOTION_DOT":"0.00005579"},{"MEAN_MOTION":"15.06407012","GP_ID":"200543896","REF_FRAME":"TEME","MEAN_ANOMALY":"299.8029","PERIOD":"95.592","ARG_OF_PERICENTER":"60.3118","ECCENTRICITY":"0.00015880","OBJECT_ID":"2020-074X","SITE":"AFETR","SEMIMAJOR_AXIS":"6925.327","OBJECT_NAME":"STARLINK-1896","DECAY_DATE":null,"MEAN_MOTION_DOT":"0.00006472","RCS_SIZE":"LARGE","TIME_SYSTEM":"UTC","CLASSIFICATION_TYPE":"U","EPHEMERIS_TYPE":"0","REV_AT_EPOCH":"8035","BSTAR":"0.00045289000000","CENTER_NAME":"EARTH","ELEMENT_SET_NO":"999","TLE_LINE2":"2 46760  53.0548 293.4065 0001588  60.3118 299.8029 15.06407012 80351","TLE_LINE1":"1 46760U 20074X   22095.84231343  .00006472  00000-0  45289-3 0  9992","MEAN_MOTION_DDOT":"0.0000000000000","INCLINATION":"53.0548","RA_OF_ASC_NODE":"293.4065","EPOCH":"2022-04-05T20:12:55.880352","LAUNCH_DATE":"2020-10-24","PERIAPSIS":"546.092","NORAD_CAT_ID":"46760","OBJECT_TYPE":"PAYLOAD","MEAN_ELEMENT_THEORY":"SGP4","FILE":"3389912","COUNTRY_CODE":"US","APOAPSIS":"548.292"},{"DECAY_DATE":null,"OBJECT_NAME":"STARLINK-1902","SEMIMAJOR_AXIS":"6817.691","SITE":"AFETR","OBJECT_ID":"2020-074AA","ECCENTRICITY":"0.00027800","PERIOD":"93.372","MEAN_ANOMALY":"336.7343","ARG_OF_PERICENTER":"23.3787","REF_FRAME":"TEME","GP_ID":"200543144","MEAN_MOTION":"15.42221466","ELEMENT_SET_NO":"999","CENTER_NAME":"EARTH","BSTAR":"0.00087008000000","REV_AT_EPOCH":"8062","EPHEMERIS_TYPE":"0","CLASSIFICATION_TYPE":"U","TIME_SYSTEM":"UTC","RCS_SIZE":"LARGE","MEAN_MOTION_DOT":"0.00037720","EPOCH":"2022-04-05T18:39:31.952160","RA_OF_ASC_NODE":"273.8468","INCLINATION":"53.0553","MEAN_MOTION_DDOT":"0.0000000000000","TLE_LINE2":"2 46763  53.0553 273.8468 0002780  23.3787 336.7343 15.42221466 80622","TLE_LINE1":"1 46763U 20074AA  22095.77745315  .00037720  00000-0  87008-3 0  9991","APOAPSIS":"441.452","COUNTRY_CODE":"US","FILE":"3389912","MEAN_ELEMENT_THEORY":"SGP4","OBJECT_TYPE":"PAYLOAD","NORAD_CAT_ID":"46763","PERIAPSIS":"437.661","LAUNCH_DATE":"2020-10-24"},{"REF_FRAME":"TEME","PERIOD":"95.592","MEAN_ANOMALY":"306.1209","ARG_OF_PERICENTER":"53.9928","MEAN_MOTION":"15.06398237","GP_ID":"200543394","OBJECT_NAME":"STARLINK-1903","DECAY_DATE":null,"ECCENTRICITY":"0.00015970","OBJECT_ID":"2020-074AB","SITE":"AFETR","SEMIMAJOR_AXIS":"6925.354","CLASSIFICATION_TYPE":"U","REV_AT_EPOCH":"8035","EPHEMERIS_TYPE":"0","MEAN_MOTION_DOT":"0.00001003","RCS_SIZE":"LARGE","TIME_SYSTEM":"UTC","BSTAR":"0.00008622700000","CENTER_NAME":"EARTH","ELEMENT_SET_NO":"999","MEAN_MOTION_DDOT":"0.0000000000000","TLE_LINE2":"2 46764  53.0566 293.4380 0001597  53.9928 306.1209 15.06398237 80352","TLE_LINE1":"1 46764U 20074AB  22095.83494560  .00001003  00000-0  86227-4 0  9990","INCLINATION":"53.0566","RA_OF_ASC_NODE":"293.4380","EPOCH":"2022-04-05T20:02:19.299840","NORAD_CAT_ID":"46764","OBJECT_TYPE":"PAYLOAD","PERIAPSIS":"546.113","LAUNCH_DATE":"2020-10-24","APOAPSIS":"548.325","FILE":"3389912","MEAN_ELEMENT_THEORY":"SGP4","COUNTRY_CODE":"US"},{"APOAPSIS":"548.342","COUNTRY_CODE":"US","MEAN_ELEMENT_THEORY":"SGP4","FILE":"3389912","OBJECT_TYPE":"PAYLOAD","NORAD_CAT_ID":"46765","LAUNCH_DATE":"2020-10-24","PERIAPSIS":"546.116","EPOCH":"2022-04-05T19:46:22.841472","RA_OF_ASC_NODE":"293.5024","INCLINATION":"53.0525","TLE_LINE2":"2 46765  53.0525 293.5024 0001607  63.7622 296.3532 15.06394948 80349","TLE_LINE1":"1 46765U 20074AC  22095.82387548  .00002506  00000-0  18708-3 0  9994","MEAN_MOTION_DDOT":"0.0000000000000","CENTER_NAME":"EARTH","ELEMENT_SET_NO":"999","BSTAR":"0.00018708000000","CLASSIFICATION_TYPE":"U","REV_AT_EPOCH":"8034","EPHEMERIS_TYPE":"0","RCS_SIZE":"LARGE","TIME_SYSTEM":"UTC","MEAN_MOTION_DOT":"0.00002506","OBJECT_NAME":"STARLINK-1906","DECAY_DATE":null,"OBJECT_ID":"2020-074AC","SEMIMAJOR_AXIS":"6925.364","SITE":"AFETR","ECCENTRICITY":"0.00016070","PERIOD":"95.592","MEAN_ANOMALY":"296.3532","ARG_OF_PERICENTER":"63.7622","REF_FRAME":"TEME","GP_ID":"200543646","MEAN_MOTION":"15.06394948"},{"FILE":"3389912","MEAN_ELEMENT_THEORY":"SGP4","COUNTRY_CODE":"US","APOAPSIS":"548.298","PERIAPSIS":"546.194","LAUNCH_DATE":"2020-10-24","NORAD_CAT_ID":"46766","OBJECT_TYPE":"PAYLOAD","RA_OF_ASC_NODE":"293.5127","EPOCH":"2022-04-05T19:35:47.204448","MEAN_MOTION_DDOT":"0.0000000000000","TLE_LINE2":"2 46766  53.0531 293.5127 0001519  65.0500 295.0647 15.06389465 80355","TLE_LINE1":"1 46766U 20074AD  22095.81651857  .00001770  00000-0  13772-3 0  9999","INCLINATION":"53.0531","BSTAR":"0.00013772000000","ELEMENT_SET_NO":"999","CENTER_NAME":"EARTH","MEAN_MOTION_DOT":"0.00001770","TIME_SYSTEM":"UTC","RCS_SIZE":"LARGE","EPHEMERIS_TYPE":"0","REV_AT_EPOCH":"8035","CLASSIFICATION_TYPE":"U","ECCENTRICITY":"0.00015190","SITE":"AFETR","SEMIMAJOR_AXIS":"6925.381","OBJECT_ID":"2020-074AD","DECAY_DATE":null,"OBJECT_NAME":"STARLINK-1916","MEAN_MOTION":"15.06389465","GP_ID":"200544396","REF_FRAME":"TEME","PERIOD":"95.593","MEAN_ANOMALY":"295.0647","ARG_OF_PERICENTER":"65.0500"},{"INCLINATION":"53.0563","TLE_LINE2":"2 46767  53.0563 293.0902 0001877  57.4335 302.6835 15.06404235 80363","TLE_LINE1":"1 46767U 20074AE  22095.91234952  .00002889  00000-0  21275-3 0  9993","MEAN_MOTION_DDOT":"0.0000000000000","EPOCH":"2022-04-05T21:53:46.998528","RA_OF_ASC_NODE":"293.0902","OBJECT_TYPE":"PAYLOAD","NORAD_CAT_ID":"46767","LAUNCH_DATE":"2020-10-24","PERIAPSIS":"545.901","APOAPSIS":"548.500","COUNTRY_CODE":"US","FILE":"3389912","MEAN_ELEMENT_THEORY":"SGP4","MEAN_ANOMALY":"302.6835","PERIOD":"95.592","ARG_OF_PERICENTER":"57.4335","REF_FRAME":"TEME","GP_ID":"200542645","MEAN_MOTION":"15.06404235","DECAY_DATE":null,"OBJECT_NAME":"STARLINK-1917","SITE":"AFETR","SEMIMAJOR_AXIS":"6925.336","OBJECT_ID":"2020-074AE","ECCENTRICITY":"0.00018770","REV_AT_EPOCH":"8036","EPHEMERIS_TYPE":"0","CLASSIFICATION_TYPE":"U","TIME_SYSTEM":"UTC","RCS_SIZE":"LARGE","MEAN_MOTION_DOT":"0.00002889","ELEMENT_SET_NO":"999","CENTER_NAME":"EARTH","BSTAR":"0.00021275000000"},{"TIME_SYSTEM":"UTC","RCS_SIZE":"LARGE","MEAN_MOTION_DOT":"0.00002958","EPHEMERIS_TYPE":"0","REV_AT_EPOCH":"8035","CLASSIFICATION_TYPE":"U","ELEMENT_SET_NO":"999","CENTER_NAME":"EARTH","BSTAR":"0.00021736000000","GP_ID":"200542895","MEAN_MOTION":"15.06404255","MEAN_ANOMALY":"296.8219","PERIOD":"95.592","ARG_OF_PERICENTER":"63.2931","REF_FRAME":"TEME","SITE":"AFETR","SEMIMAJOR_AXIS":"6925.336","OBJECT_ID":"2020-074AF","ECCENTRICITY":"0.00015750","DECAY_DATE":null,"OBJECT_NAME":"STARLINK-1918","PERIAPSIS":"546.110","LAUNCH_DATE":"2020-10-24","OBJECT_TYPE":"PAYLOAD","NORAD_CAT_ID":"46768","COUNTRY_CODE":"US","FILE":"3389912","MEAN_ELEMENT_THEORY":"SGP4","APOAPSIS":"548.291","INCLINATION":"53.0530","MEAN_MOTION_DDOT":"0.0000000000000","TLE_LINE2":"2 46768  53.0530 293.3854 0001575  63.2931 296.8219 15.06404255 80350","TLE_LINE1":"1 46768U 20074AF  22095.84968671  .00002958  00000-0  21736-3 0  9997","EPOCH":"2022-04-05T20:23:32.931744","RA_OF_ASC_NODE":"293.3854"},{"GP_ID":"200547408","MEAN_MOTION":"15.97465197","PERIOD":"90.143","MEAN_ANOMALY":"9.9371","ARG_OF_PERICENTER":"350.1934","REF_FRAME":"TEME","SEMIMAJOR_AXIS":"6659.591","SITE":"AFETR","OBJECT_ID":"2020-074AG","ECCENTRICITY":"0.00041690","DECAY_DATE":null,"OBJECT_NAME":"STARLINK-1919","TIME_SYSTEM":"UTC","RCS_SIZE":"LARGE","MEAN_MOTION_DOT":"0.02180260","EPHEMERIS_TYPE":"0","REV_AT_EPOCH":"8083","CLASSIFICATION_TYPE":"U","ELEMENT_SET_NO":"999","CENTER_NAME":"EARTH","BSTAR":"0.00500790000000","INCLINATION":"53.0511","TLE_LINE2":"2 46769  53.0511 239.7187 0004169 350.1934   9.9371 15.97465197 80833","MEAN_MOTION_DDOT":"0.0032033000000","TLE_LINE1":"1 46769U 20074AG  22095.84229499  .02180260  32033-2  50079-2 0  9995","EPOCH":"2022-04-05T20:12:54.287136","RA_OF_ASC_NODE":"239.7187","LAUNCH_DATE":"2020-10-24","PERIAPSIS":"278.680","OBJECT_TYPE":"PAYLOAD","NORAD_CAT_ID":"46769","COUNTRY_CODE":"US","MEAN_ELEMENT_THEORY":"SGP4","FILE":"3389916","APOAPSIS":"284.233"}];
